HAWK-5A                 
1 52757U 22057AB  26193.32073688  .00011396  00000+0  18937-3 0  9990
2 52757  97.6614 353.8121 0003615 350.0756  10.0424 15.52256086230247
HAWK-6B                 
1 55324U 23011A   26193.23139805  .00002498  00000+0  11172-3 0  9995
2 55324  40.4968 205.9731 0003743 225.0500 135.0006 15.23137257191664
HAWK-6C                 
1 55326U 23011C   26193.23077132  .00002588  00000+0  11543-3 0  9993
2 55326  40.4958 202.8120 0004261 216.0159 144.0363 15.23139142191671
HAWK-6A                 
1 55327U 23011D   26193.23080702  .00002513  00000+0  11236-3 0  9998
2 55327  40.4966 204.4391 0003761 213.8714 146.1855 15.23138004191670
HAWK-7A                 
1 56191U 23054P   26193.26590500  .00003100  00000+0  11752-3 0  9996
2 56191  97.2675  79.9660 0001746 348.3867  11.7332 15.27613216180857
HAWK-7B                 
1 56193U 23054R   26193.26583307  .00003010  00000+0  11420-3 0  9997
2 56193  97.2699  78.2387 0001643  22.7496 337.3816 15.27610487180851
HAWK-7C                 
1 56200U 23054Y   26193.06920338  .00003368  00000+0  12745-3 0  9990
2 56200  97.2676  78.8079 0001217   6.7020 353.4236 15.27613708180822
