OBJECT_NAME,OBJECT_ID,EPOCH,MEAN_MOTION,ECCENTRICITY,INCLINATION,RA_OF_ASC_NODE,ARG_OF_PERICENTER,MEAN_ANOMALY,EPHEMERIS_TYPE,CLASSIFICATION_TYPE,NORAD_CAT_ID,ELEMENT_SET_NO,REV_AT_EPOCH,BSTAR,MEAN_MOTION_DOT,MEAN_MOTION_DDOT
HAWK-5A,2022-057AB,2026-07-12T07:41:51.666432,15.52256086,.00036159,97.6614,353.8121,350.0756,10.0424,0,U,52757,999,23024,.18937201E-3,.11396E-3,0
HAWK-6B,2023-011A,2026-07-12T05:33:12.791520,15.23137257,.00037435,40.4968,205.9731,225.0500,135.0006,0,U,55324,999,19166,.11171724E-3,.2498E-4,0
HAWK-6C,2023-011C,2026-07-12T05:32:18.642048,15.23139142,.00042612,40.4958,202.8120,216.0159,144.0363,0,U,55326,999,19167,.11542683E-3,.2588E-4,0
HAWK-6A,2023-011D,2026-07-12T05:32:21.726528,15.23138004,.00037613,40.4966,204.4391,213.8714,146.1855,0,U,55327,999,19167,.11235782E-3,.2513E-4,0
HAWK-7A,2023-054P,2026-07-12T06:22:54.192000,15.27613216,.00017462,97.2675,79.9660,348.3867,11.7332,0,U,56191,999,18085,.11751753E-3,.31E-4,0
HAWK-7B,2023-054R,2026-07-12T06:22:47.977248,15.27610487,.00016439,97.2699,78.2387,22.7496,337.3816,0,U,56193,999,18085,.11419745E-3,.301E-4,0
HAWK-7C,2023-054Y,2026-07-12T01:39:39.172032,15.27613708,.00012174,97.2676,78.8079,6.7020,353.4236,0,U,56200,999,18082,.1274496E-3,.3368E-4,0
